[
    {
        "Altitude(m)": 706093.1111317411,
        "Argument of Periapsis(deg)": 0.0022780242373254137,
        "Eccentricity": 0.0,
        "Inclination(deg)": 45.0,
        "Latitude(deg)": -13.21382499409768,
        "Longitude(deg)": 148.37549281936373,
        "Mean Anomaly(deg)": 198.67024332949617,
        "RAAN(deg)": 54.99784961170836,
        "Satellite Name": "Constellation 1 254",
        "Satellite Number": 254,
        "Semi-Major Axis(m)": 7083131.272910544,
        "Time(s)": 38
    },
    {
        "Altitude(m)": 706104.3453967304,
        "Argument of Periapsis(deg)": 0.002337972243570819,
        "Eccentricity": 0.0,
        "Inclination(deg)": 45.0,
        "Latitude(deg)": -13.255793850099149,
        "Longitude(deg)": 148.41656770253604,
        "Mean Anomaly(deg)": 198.73094446974602,
        "RAAN(deg)": 54.99779302254279,
        "Satellite Name": "Constellation 1 254",
        "Satellite Number": 254,
        "Semi-Major Axis(m)": 7083131.272910544,
        "Time(s)": 39
    },
    {
        "Altitude(m)": 706115.5940346228,
        "Argument of Periapsis(deg)": 0.0023979202498162246,
        "Eccentricity": 0.0,
        "Inclination(deg)": 45.0,
        "Latitude(deg)": -13.297754471748423,
        "Longitude(deg)": 148.4576579714108,
        "Mean Anomaly(deg)": 198.79164560999595,
        "RAAN(deg)": 54.99773643337723,
        "Satellite Name": "Constellation 1 254",
        "Satellite Number": 254,
        "Semi-Major Axis(m)": 7083131.272910544,
        "Time(s)": 40
    },
    {
        "Altitude(m)": 706126.8570124886,
        "Argument of Periapsis(deg)": 0.00245786825606163,
        "Eccentricity": 0.0,
        "Inclination(deg)": 45.0,
        "Latitude(deg)": -13.33970682970651,
        "Longitude(deg)": 148.49876367899395,
        "Mean Anomaly(deg)": 198.8523467502458,
        "RAAN(deg)": 54.99767984421165,
        "Satellite Name": "Constellation 1 254",
        "Satellite Number": 254,
        "Semi-Major Axis(m)": 7083131.272910544,
        "Time(s)": 41
    },
    {
        "Altitude(m)": 706138.1342973359,
        "Argument of Periapsis(deg)": 0.002517816262307036,
        "Eccentricity": 0.0,
        "Inclination(deg)": 45.0,
        "Latitude(deg)": -13.38165089460512,
        "Longitude(deg)": 148.5398848783197,
        "Mean Anomaly(deg)": 198.91304789049576,
        "RAAN(deg)": 54.997623255046086,
        "Satellite Name": "Constellation 1 254",
        "Satellite Number": 254,
        "Semi-Major Axis(m)": 7083131.272910544,
        "Time(s)": 42
    },
    {
        "Altitude(m)": 706149.425856102,
        "Argument of Periapsis(deg)": 0.0025777642685524413,
        "Eccentricity": 0.0,
        "Inclination(deg)": 45.0,
        "Latitude(deg)": -13.423586637046087,
        "Longitude(deg)": 148.5810216224501,
        "Mean Anomaly(deg)": 198.97374903074567,
        "RAAN(deg)": 54.99756666588051,
        "Satellite Name": "Constellation 1 254",
        "Satellite Number": 254,
        "Semi-Major Axis(m)": 7083131.272910544,
        "Time(s)": 43
    },
    {
        "Altitude(m)": 706160.7316556462,
        "Argument of Periapsis(deg)": 0.002637712274797847,
        "Eccentricity": 0.0,
        "Inclination(deg)": 45.0,
        "Latitude(deg)": -13.465514027601223,
        "Longitude(deg)": 148.62217379637826,
        "Mean Anomaly(deg)": 199.03445017099557,
        "RAAN(deg)": 54.99751007671494,
        "Satellite Name": "Constellation 1 254",
        "Satellite Number": 254,
        "Semi-Major Axis(m)": 7083131.272910544,
        "Time(s)": 44
    },
    {
        "Altitude(m)": 706172.0516627657,
        "Argument of Periapsis(deg)": 0.0026976602810432526,
        "Eccentricity": 0.0,
        "Inclination(deg)": 45.0,
        "Latitude(deg)": -13.507433036813199,
        "Longitude(deg)": 148.6633417894165,
        "Mean Anomaly(deg)": 199.09515131124536,
        "RAAN(deg)": 54.997453487549365,
        "Satellite Name": "Constellation 1 254",
        "Satellite Number": 254,
        "Semi-Major Axis(m)": 7083131.272910544,
        "Time(s)": 45
    },
    {
        "Altitude(m)": 706183.3858441754,
        "Argument of Periapsis(deg)": 0.0027576082872886585,
        "Eccentricity": 0.0,
        "Inclination(deg)": 45.0,
        "Latitude(deg)": -13.54934363519403,
        "Longitude(deg)": 148.70452548661441,
        "Mean Anomaly(deg)": 199.15585245149535,
        "RAAN(deg)": 54.997396898383805,
        "Satellite Name": "Constellation 1 254",
        "Satellite Number": 254,
        "Semi-Major Axis(m)": 7083131.272910544,
        "Time(s)": 46
    },
    {
        "Altitude(m)": 706194.7341665428,
        "Argument of Periapsis(deg)": 0.0028175562935340644,
        "Eccentricity": 0.0,
        "Inclination(deg)": 45.0,
        "Latitude(deg)": -13.59124579322566,
        "Longitude(deg)": 148.74572494114653,
        "Mean Anomaly(deg)": 199.21655359174522,
        "RAAN(deg)": 54.99734030921823,
        "Satellite Name": "Constellation 1 254",
        "Satellite Number": 254,
        "Semi-Major Axis(m)": 7083131.272910544,
        "Time(s)": 47
    },
    {
        "Altitude(m)": 706206.096596435,
        "Argument of Periapsis(deg)": 0.00287750429977947,
        "Eccentricity": 0.0,
        "Inclination(deg)": 45.0,
        "Latitude(deg)": -13.633139481359905,
        "Longitude(deg)": 148.78694020621583,
        "Mean Anomaly(deg)": 199.27725473199516,
        "RAAN(deg)": 54.997283720052664,
        "Satellite Name": "Constellation 1 254",
        "Satellite Number": 254,
        "Semi-Major Axis(m)": 7083131.272910544,
        "Time(s)": 48
    },
    {
        "Altitude(m)": 706217.4731003769,
        "Argument of Periapsis(deg)": 0.002937452306024875,
        "Eccentricity": 0.0,
        "Inclination(deg)": 45.0,
        "Latitude(deg)": -13.675024670018232,
        "Longitude(deg)": 148.82817133505358,
        "Mean Anomaly(deg)": 199.3379558722451,
        "RAAN(deg)": 54.99722713088709,
        "Satellite Name": "Constellation 1 254",
        "Satellite Number": 254,
        "Semi-Major Axis(m)": 7083131.272910544,
        "Time(s)": 49
    },
    {
        "Altitude(m)": 706228.8636448047,
        "Argument of Periapsis(deg)": 0.0029974003122702807,
        "Eccentricity": 0.0,
        "Inclination(deg)": 45.0,
        "Latitude(deg)": -13.716901329591584,
        "Longitude(deg)": 148.8694183809193,
        "Mean Anomaly(deg)": 199.3986570124949,
        "RAAN(deg)": 54.99717054172153,
        "Satellite Name": "Constellation 1 254",
        "Satellite Number": 254,
        "Semi-Major Axis(m)": 7083131.272910544,
        "Time(s)": 50
    },
    {
        "Altitude(m)": 706240.2681960935,
        "Argument of Periapsis(deg)": 0.0030573483185156866,
        "Eccentricity": 0.0,
        "Inclination(deg)": 45.0,
        "Latitude(deg)": -13.758769430440507,
        "Longitude(deg)": 148.9106813971011,
        "Mean Anomaly(deg)": 199.45935815274484,
        "RAAN(deg)": 54.99711395255596,
        "Satellite Name": "Constellation 1 254",
        "Satellite Number": 254,
        "Semi-Major Axis(m)": 7083131.272910544,
        "Time(s)": 51
    },
    {
        "Altitude(m)": 706251.6867205478,
        "Argument of Periapsis(deg)": 0.003117296324761092,
        "Eccentricity": 0.0,
        "Inclination(deg)": 45.0,
        "Latitude(deg)": -13.800628942894503,
        "Longitude(deg)": 148.9519602688184,
        "Mean Anomaly(deg)": 199.52005929299474,
        "RAAN(deg)": 54.99705736339039,
        "Satellite Name": "Constellation 1 254",
        "Satellite Number": 254,
        "Semi-Major Axis(m)": 7083131.272910544,
        "Time(s)": 52
    },
    {
        "Altitude(m)": 706263.1191844011,
        "Argument of Periapsis(deg)": 0.0031772443310064975,
        "Eccentricity": 0.0,
        "Inclination(deg)": 45.0,
        "Latitude(deg)": -13.842479837253155,
        "Longitude(deg)": 148.99325538561024,
        "Mean Anomaly(deg)": 199.58076043324468,
        "RAAN(deg)": 54.997000774224816,
        "Satellite Name": "Constellation 1 254",
        "Satellite Number": 254,
        "Semi-Major Axis(m)": 7083131.272910544,
        "Time(s)": 53
    },
    {
        "Altitude(m)": 706274.5655538262,
        "Argument of Periapsis(deg)": 0.0032371923372519038,
        "Eccentricity": 0.0,
        "Inclination(deg)": 45.0,
        "Latitude(deg)": -13.884322083784273,
        "Longitude(deg)": 149.03456663275298,
        "Mean Anomaly(deg)": 199.64146157349455,
        "RAAN(deg)": 54.99694418505925,
        "Satellite Name": "Constellation 1 254",
        "Satellite Number": 254,
        "Semi-Major Axis(m)": 7083131.272910544,
        "Time(s)": 54
    },
    {
        "Altitude(m)": 706286.0257949096,
        "Argument of Periapsis(deg)": 0.0032971403434973088,
        "Eccentricity": 0.0,
        "Inclination(deg)": 45.0,
        "Latitude(deg)": -13.92615565272502,
        "Longitude(deg)": 149.07589406364875,
        "Mean Anomaly(deg)": 199.7021627137444,
        "RAAN(deg)": 54.996887595893675,
        "Satellite Name": "Constellation 1 254",
        "Satellite Number": 254,
        "Semi-Major Axis(m)": 7083131.272910544,
        "Time(s)": 55
    },
    {
        "Altitude(m)": 706297.4998736759,
        "Argument of Periapsis(deg)": 0.0033570883497427146,
        "Eccentricity": 0.0,
        "Inclination(deg)": 45.0,
        "Latitude(deg)": -13.967980514281699,
        "Longitude(deg)": 149.11723773172844,
        "Mean Anomaly(deg)": 199.76286385399433,
        "RAAN(deg)": 54.99683100672811,
        "Satellite Name": "Constellation 1 254",
        "Satellite Number": 254,
        "Semi-Major Axis(m)": 7083131.272910544,
        "Time(s)": 56
    }
]